[
  {
    "name": "STARLINK-3110",
    "noradId": "49420",
    "line1": "1 49420U 21104N   26167.19987900 -.00000278  00000+0  65206-6 0  9994",
    "line2": "2 49420  53.1596 146.8022 0001272  88.8402 271.2736 15.08828756253496"
  },
  {
    "name": "STARLINK-3112",
    "noradId": "49421",
    "line1": "1 49421U 21104P   26167.23297052 -.00000113  00000+0  10979-4 0  9995",
    "line2": "2 49421  53.1603 146.4607 0001145  80.9967 279.1154 15.08829840253507"
  },
  {
    "name": "STARLINK-3161",
    "noradId": "49422",
    "line1": "1 49422U 21104Q   26167.22662897 -.00000238  00000+0  31775-5 0  9994",
    "line2": "2 49422  53.1617 147.0006 0001690  68.5472 291.5700 15.08831674253492"
  },
  {
    "name": "STARLINK-3135",
    "noradId": "49424",
    "line1": "1 49424U 21104S   26167.18885354 -.00000716  00000+0 -26907-4 0  9998",
    "line2": "2 49424  53.1600 146.8517 0001154  77.9235 282.1886 15.08822895253492"
  },
  {
    "name": "STARLINK-3139",
    "noradId": "49425",
    "line1": "1 49425U 21104T   26167.24130889  .00000000  00000+0  18094-4 0  9994",
    "line2": "2 49425  53.1598 146.6222 0001063  65.4415 294.6687 15.08831480253511"
  },
  {
    "name": "STARLINK-3114",
    "noradId": "49426",
    "line1": "1 49426U 21104U   26167.24772196 -.00000149  00000+0  87616-5 0  9990",
    "line2": "2 49426  53.1608 146.5882 0001369  90.2009 269.9139 15.08822651253505"
  },
  {
    "name": "STARLINK-3131",
    "noradId": "49427",
    "line1": "1 49427U 21104V   26167.23763484 -.00000419  00000+0 -82502-5 0  9990",
    "line2": "2 49427  53.1615 146.6429 0001743  90.0893 270.0298 15.08826902253510"
  },
  {
    "name": "STARLINK-3121",
    "noradId": "49428",
    "line1": "1 49428U 21104W   26167.21827236  .00000103  00000+0  24598-4 0  9993",
    "line2": "2 49428  53.1613 146.6328 0001343  87.1313 272.9832 15.08828229253516"
  },
  {
    "name": "STARLINK-3138",
    "noradId": "49430",
    "line1": "1 49430U 21104Y   26167.25974510  .00000786  00000+0  67486-4 0  9998",
    "line2": "2 49430  53.1605 146.8117 0001266  88.9617 271.1519 15.08833492253519"
  },
  {
    "name": "STARLINK-3153",
    "noradId": "49431",
    "line1": "1 49431U 21104Z   26167.21094525  .00000579  00000+0  54459-4 0  9990",
    "line2": "2 49431  53.1615 146.9351 0001362  86.1493 273.9655 15.08829714253503"
  },
  {
    "name": "STARLINK-3158",
    "noradId": "49432",
    "line1": "1 49432U 21104AA  26167.19806979 -.00000004  00000+0  17822-4 0  9999",
    "line2": "2 49432  53.1607 136.8103 0001457  88.7454 271.3704 15.08832337253645"
  },
  {
    "name": "STARLINK-3079",
    "noradId": "49433",
    "line1": "1 49433U 21104AB  26167.59547965  .00000366  00000+0  41126-4 0  9995",
    "line2": "2 49433  53.1605 125.0253 0001452  93.9950 266.1207 15.08829021254933"
  },
  {
    "name": "STARLINK-3134",
    "noradId": "49434",
    "line1": "1 49434U 21104AC  26167.23928907  .00015387  00000+0  96879-3 0  9999",
    "line2": "2 49434  53.2152 146.8234 0001745  55.4511 304.6646 15.09366177254599"
  },
  {
    "name": "STARLINK-3117",
    "noradId": "49435",
    "line1": "1 49435U 21104AD  26167.60011724  .00003805  00000+0  25702-3 0  9990",
    "line2": "2 49435  53.1616 125.0055 0001494  88.5389 271.5774 15.08842978253843"
  },
  {
    "name": "STARLINK-3049",
    "noradId": "49436",
    "line1": "1 49436U 21104AE  26167.59915666  .00000301  00000+0  36994-4 0  9991",
    "line2": "2 49436  53.1609 125.0100 0001397  89.0152 271.1000 15.08832245253847"
  },
  {
    "name": "STARLINK-3130",
    "noradId": "49437",
    "line1": "1 49437U 21104AF  26167.58334491  .00008446  00000+0  43516-3 0  9997",
    "line2": "2 49437  53.1609 124.9027 0000831  53.6213 348.1522 15.17185237  5695"
  },
  {
    "name": "STARLINK-3044",
    "noradId": "49438",
    "line1": "1 49438U 21104AG  26167.58170430 -.00000114  00000+0  10961-4 0  9993",
    "line2": "2 49438  53.1609 125.0210 0001392  88.2703 271.8448 15.08829743253841"
  },
  {
    "name": "STARLINK-3105",
    "noradId": "49440",
    "line1": "1 49440U 21104AJ  26167.58443496  .00000207  00000+0  31125-4 0  9998",
    "line2": "2 49440  53.1618 125.0755 0001422  86.7034 273.4120 15.08828855253840"
  },
  {
    "name": "STARLINK-3128",
    "noradId": "49441",
    "line1": "1 49441U 21104AK  26167.58334491  .00007635  00000+0  39408-3 0  9996",
    "line2": "2 49441  53.1607 124.8852 0002352  79.4585 111.8096 15.17261980  5759"
  },
  {
    "name": "STARLINK-3098",
    "noradId": "49442",
    "line1": "1 49442U 21104AL  26167.58334491  .00010287  00000+0  51954-3 0  9994",
    "line2": "2 49442  53.1605 124.9068 0001586  61.6423  39.9988 15.17654059  5753"
  },
  {
    "name": "STARLINK-3136",
    "noradId": "49443",
    "line1": "1 49443U 21104AM  26167.58606862  .00017322  00000+0  10442-2 0  9992",
    "line2": "2 49443  53.2161 124.7109 0002912  68.8769 291.2535 15.10866378253851"
  },
  {
    "name": "STARLINK-3126",
    "noradId": "49444",
    "line1": "1 49444U 21104AN  26167.57802976 -.00002095  00000+0 -11356-3 0  9995",
    "line2": "2 49444  53.1618 125.1135 0001945 151.1127 208.9973 15.08830056253842"
  },
  {
    "name": "STARLINK-3122",
    "noradId": "49445",
    "line1": "1 49445U 21104AP  26167.23121403  .00004480  00000+0  29920-3 0  9992",
    "line2": "2 49445  53.1607 137.0547 0001340  82.7001 277.4143 15.08864220253647"
  },
  {
    "name": "STARLINK-3099",
    "noradId": "49446",
    "line1": "1 49446U 21104AQ  26167.57339463 -.00000057  00000+0  14535-4 0  9991",
    "line2": "2 49446  53.1618 125.1226 0001543  87.6015 272.5153 15.08831701253843"
  },
  {
    "name": "STARLINK-3115",
    "noradId": "49447",
    "line1": "1 49447U 21104AR  26167.18609064  .00000018  00000+0  19231-4 0  9990",
    "line2": "2 49447  53.1611 136.8624 0001584 102.2247 257.8922 15.08828838253649"
  },
  {
    "name": "STARLINK-3137",
    "noradId": "49449",
    "line1": "1 49449U 21104AT  26167.09679482  .00064948  00000+0  11387-2 0  9997",
    "line2": "2 49449  53.2149  98.5004 0002909  74.6907 285.4424 15.49983282254185"
  },
  {
    "name": "STARLINK-3127",
    "noradId": "49450",
    "line1": "1 49450U 21104AU  26167.19343689  .00000224  00000+0  32179-4 0  9998",
    "line2": "2 49450  53.1614 136.8691 0001416  88.3675 271.7479 15.08833951253906"
  },
  {
    "name": "STARLINK-3125",
    "noradId": "49451",
    "line1": "1 49451U 21104AV  26167.17871599  .00000073  00000+0  22711-4 0  9996",
    "line2": "2 49451  53.1599 136.8967 0001291  85.1482 274.9657 15.08831673253640"
  },
  {
    "name": "STARLINK-3150",
    "noradId": "49452",
    "line1": "1 49452U 21104AW  26167.23487683  .00000081  00000+0  23185-4 0  9996",
    "line2": "2 49452  53.1595 136.6837 0001282  85.3228 274.7910 15.08832320253652"
  },
  {
    "name": "STARLINK-3129",
    "noradId": "49453",
    "line1": "1 49453U 21104AX  26167.58334491  .00005747  00000+0  29224-3 0  9996",
    "line2": "2 49453  53.1592 134.9833 0002039  70.6748  55.4206 15.18253481  5756"
  },
  {
    "name": "STARLINK-3160",
    "noradId": "49454",
    "line1": "1 49454U 21104AY  26167.17503538  .00000382  00000+0  42122-4 0  9995",
    "line2": "2 49454  53.1606 136.9130 0001387  89.7990 270.3160 15.08833005253645"
  },
  {
    "name": "STARLINK-3145",
    "noradId": "49455",
    "line1": "1 49455U 21104AZ  26167.22656993 -.00000090  00000+0  12421-4 0  9992",
    "line2": "2 49455  53.1609 136.6810 0001361  93.0835 267.0312 15.08825176253652"
  },
  {
    "name": "STARLINK-3124",
    "noradId": "49456",
    "line1": "1 49456U 21104BA  26167.23854669 -.00000527  00000+0 -15009-4 0  9995",
    "line2": "2 49456  53.1595 136.6768 0001379  50.3430 309.7683 15.08848077253655"
  },
  {
    "name": "STARLINK-3132",
    "noradId": "49457",
    "line1": "1 49457U 21104BB  26167.22384896  .00000926  00000+0  76296-4 0  9991",
    "line2": "2 49457  53.1605 136.7078 0001442  98.5999 261.5155 15.08826497253659"
  },
  {
    "name": "STARLINK-3156",
    "noradId": "49458",
    "line1": "1 49458U 21104BC  26167.23020631  .00003986  00000+0  26824-3 0  9997",
    "line2": "2 49458  53.1600 136.6655 0001178  94.1286 265.9840 15.08861729253658"
  },
  {
    "name": "STARLINK-3141",
    "noradId": "49459",
    "line1": "1 49459U 21104BD  26167.61663411 -.00000617  00000+0 -20701-4 0  9998",
    "line2": "2 49459  53.1613 134.9295 0001306  90.0687 270.0454 15.08837080253715"
  },
  {
    "name": "STARLINK-3140",
    "noradId": "49460",
    "line1": "1 49460U 21104BE  26167.61295448 -.00000701  00000+0 -25940-4 0  9995",
    "line2": "2 49460  53.1618 134.9459 0001313  85.8676 274.2465 15.08834619253704"
  },
  {
    "name": "STARLINK-3219",
    "noradId": "49724",
    "line1": "1 49724U 21115A   26167.41560274  .00136224  00000+0  81528-2 0  9990",
    "line2": "2 49724  53.1605  66.0404 0001425 104.1721 255.9429 15.09990813250431"
  },
  {
    "name": "STARLINK-3218",
    "noradId": "49725",
    "line1": "1 49725U 21115B   26167.43908628  .00001627  00000+0  12032-3 0  9995",
    "line2": "2 49725  53.1597  65.8337 0001249  91.4760 268.6374 15.08833904250446"
  },
  {
    "name": "STARLINK-3242",
    "noradId": "49727",
    "line1": "1 49727U 21115D   26166.99655731 -.00001146  00000+0 -53929-4 0  9990",
    "line2": "2 49727  53.1600  77.7180 0001327  96.2789 263.8354 15.08834714250234"
  },
  {
    "name": "STARLINK-3240",
    "noradId": "49728",
    "line1": "1 49728U 21115E   26167.06647610  .00000365  00000+0  41042-4 0  9990",
    "line2": "2 49728  53.1609  77.4030 0001366  92.3053 267.8095 15.08832943250248"
  },
  {
    "name": "STARLINK-3251",
    "noradId": "49729",
    "line1": "1 49729U 21115F   26166.99286368 -.00000016  00000+0  17066-4 0  9994",
    "line2": "2 49729  53.1600  77.6169 0001308  75.5335 284.5802 15.08831233250239"
  }
]